{
  "type": "FeatureCollection",
  "features": [
    {
      "type": "Feature",
      "properties": {
        "norad_id": 35744,
        "name": "IRIDIUM 33 DEB",
        "group": "iridium-33-debris",
        "lat": 20.262418599047628,
        "lon": -34.525500965363804,
        "alt_km": 671.374988578902,
        "timestamp": "2025-12-15T15:53:20.234000+00:00",
        "meta_object_name": "IRIDIUM 33 DEB",
        "meta_object_id": "1997-051RX",
        "meta_epoch": "2025-12-13T22:58:55.896096",
        "meta_mean_motion": 14.71021634,
        "meta_eccentricity": 0.00202926,
        "meta_inclination": 86.3293,
        "meta_ra_of_asc_node": 324.8864,
        "meta_arg_of_pericenter": 187.562,
        "meta_mean_anomaly": 172.5294,
        "meta_ephemeris_type": 0,
        "meta_classification_type": "U",
        "meta_norad_cat_id": 35744,
        "meta_element_set_no": 999,
        "meta_rev_at_epoch": 87349,
        "meta_bstar": 0.0013343244,
        "meta_mean_motion_dot": 8.239e-05,
        "meta_mean_motion_ddot": 0,
        "tle_line1": "1 35744U 97051RX  25347.95759139  .00008239  00000+0  13343-2 0  9991",
        "tle_line2": "2 35744  86.3293 324.8864 0020292 187.5620 172.5294 14.71021634873495"
      },
      "geometry": {
        "type": "Point",
        "coordinates": [
          -34.525500965363804,
          20.262418599047628
        ]
      }
    },
    {
      "type": "Feature",
      "properties": {
        "norad_id": 35797,
        "name": "IRIDIUM 33 DEB",
        "group": "iridium-33-debris",
        "lat": -52.441058081952875,
        "lon": 153.41079643527542,
        "alt_km": 628.079371382195,
        "timestamp": "2025-12-15T15:53:20.234009+00:00",
        "meta_object_name": "IRIDIUM 33 DEB",
        "meta_object_id": "1997-051SF",
        "meta_epoch": "2025-12-12T05:51:50.415264",
        "meta_mean_motion": 14.82743783,
        "meta_eccentricity": 0.00133704,
        "meta_inclination": 86.3362,
        "meta_ra_of_asc_node": 330.2007,
        "meta_arg_of_pericenter": 149.5686,
        "meta_mean_anomaly": 210.6315,
        "meta_ephemeris_type": 0,
        "meta_classification_type": "U",
        "meta_norad_cat_id": 35797,
        "meta_element_set_no": 999,
        "meta_rev_at_epoch": 87333,
        "meta_bstar": 0.0026694194,
        "meta_mean_motion_dot": 0.00021655,
        "meta_mean_motion_ddot": 0,
        "tle_line1": "1 35797U 97051SF  25346.24433351  .00021655  00000+0  26694-2 0  9995",
        "tle_line2": "2 35797  86.3362 330.2007 0013370 149.5686 210.6315 14.82743783873338"
      },
      "geometry": {
        "type": "Point",
        "coordinates": [
          153.41079643527542,
          -52.441058081952875
        ]
      }
    },
    {
      "type": "Feature",
      "properties": {
        "norad_id": 35806,
        "name": "IRIDIUM 33 DEB",
        "group": "iridium-33-debris",
        "lat": -86.26944921986909,
        "lon": -59.35572444399132,
        "alt_km": 719.3386737805731,
        "timestamp": "2025-12-15T15:53:20.234018+00:00",
        "meta_object_name": "IRIDIUM 33 DEB",
        "meta_object_id": "1997-051SQ",
        "meta_epoch": "2025-12-10T20:56:47.284800",
        "meta_mean_motion": 14.5731398,
        "meta_eccentricity": 0.0016091,
        "meta_inclination": 86.344,
        "meta_ra_of_asc_node": 21.4504,
        "meta_arg_of_pericenter": 81.1516,
        "meta_mean_anomaly": 279.1514,
        "meta_ephemeris_type": 0,
        "meta_classification_type": "U",
        "meta_norad_cat_id": 35806,
        "meta_element_set_no": 999,
        "meta_rev_at_epoch": 86297,
        "meta_bstar": 0.0016785,
        "meta_mean_motion_dot": 7.632e-05,
        "meta_mean_motion_ddot": 0,
        "tle_line1": "1 35806U 97051SQ  25344.87276950  .00007632  00000+0  16785-2 0  9992",
        "tle_line2": "2 35806  86.3440  21.4504 0016091  81.1516 279.1514 14.57313980862976"
      },
      "geometry": {
        "type": "Point",
        "coordinates": [
          -59.35572444399132,
          -86.26944921986909
        ]
      }
    },
    {
      "type": "Feature",
      "properties": {
        "norad_id": 35809,
        "name": "IRIDIUM 33 DEB",
        "group": "iridium-33-debris",
        "lat": 71.24410131492935,
        "lon": 143.12089016021523,
        "alt_km": 639.7533139594598,
        "timestamp": "2025-12-15T15:53:20.234027+00:00",
        "meta_object_name": "IRIDIUM 33 DEB",
        "meta_object_id": "1997-051ST",
        "meta_epoch": "2025-12-10T16:35:56.421600",
        "meta_mean_motion": 14.75629145,
        "meta_eccentricity": 0.00097103,
        "meta_inclination": 86.329,
        "meta_ra_of_asc_node": 336.2813,
        "meta_arg_of_pericenter": 251.0565,
        "meta_mean_anomaly": 108.9602,
        "meta_ephemeris_type": 0,
        "meta_classification_type": "U",
        "meta_norad_cat_id": 35809,
        "meta_element_set_no": 999,
        "meta_rev_at_epoch": 86777,
        "meta_bstar": 0.0026432017,
        "meta_mean_motion_dot": 0.00018102,
        "meta_mean_motion_ddot": 0,
        "tle_line1": "1 35809U 97051ST  25344.69162525  .00018102  00000+0  26432-2 0  9991",
        "tle_line2": "2 35809  86.3290 336.2813 0009710 251.0565 108.9602 14.75629145867777"
      },
      "geometry": {
        "type": "Point",
        "coordinates": [
          143.12089016021523,
          71.24410131492935
        ]
      }
    },
    {
      "type": "Feature",
      "properties": {
        "norad_id": 35846,
        "name": "IRIDIUM 33 DEB",
        "group": "iridium-33-debris",
        "lat": -85.66134586035051,
        "lon": -65.72575608666241,
        "alt_km": 759.4671093232309,
        "timestamp": "2025-12-15T15:53:20.234036+00:00",
        "meta_object_name": "IRIDIUM 33 DEB",
        "meta_object_id": "1997-051SW",
        "meta_epoch": "2025-12-13T22:42:58.027680",
        "meta_mean_motion": 14.43166074,
        "meta_eccentricity": 0.00189778,
        "meta_inclination": 86.3748,
        "meta_ra_of_asc_node": 58.3258,
        "meta_arg_of_pericenter": 166.0798,
        "meta_mean_anomaly": 194.093,
        "meta_ephemeris_type": 0,
        "meta_classification_type": "U",
        "meta_norad_cat_id": 35846,
        "meta_element_set_no": 999,
        "meta_rev_at_epoch": 71346,
        "meta_bstar": 0.00070076496,
        "meta_mean_motion_dot": 2.378e-05,
        "meta_mean_motion_ddot": 0,
        "tle_line1": "1 35846U 97051SW  25347.94650495  .00002378  00000+0  70076-3 0  9993",
        "tle_line2": "2 35846  86.3748  58.3258 0018977 166.0798 194.0930 14.43166074713467"
      },
      "geometry": {
        "type": "Point",
        "coordinates": [
          -65.72575608666241,
          -85.66134586035051
        ]
      }
    },
    {
      "type": "Feature",
      "properties": {
        "norad_id": 35848,
        "name": "IRIDIUM 33 DEB",
        "group": "iridium-33-debris",
        "lat": 86.04420498320003,
        "lon": 128.90682378541246,
        "alt_km": 625.5584552056935,
        "timestamp": "2025-12-15T15:53:20.234048+00:00",
        "meta_object_name": "IRIDIUM 33 DEB",
        "meta_object_id": "1997-051SY",
        "meta_epoch": "2025-12-14T19:59:10.774176",
        "meta_mean_motion": 14.78689372,
        "meta_eccentricity": 0.00081927,
        "meta_inclination": 86.3904,
        "meta_ra_of_asc_node": 15.1825,
        "meta_arg_of_pericenter": 180.6002,
        "meta_mean_anomaly": 179.521,
        "meta_ephemeris_type": 0,
        "meta_classification_type": "U",
        "meta_norad_cat_id": 35848,
        "meta_element_set_no": 999,
        "meta_rev_at_epoch": 66721,
        "meta_bstar": 0.0010179652,
        "meta_mean_motion_dot": 7.493e-05,
        "meta_mean_motion_ddot": 0,
        "tle_line1": "1 35848U 97051SY  25348.83276359  .00007493  00000+0  10180-2 0  9999",
        "tle_line2": "2 35848  86.3904  15.1825 0008192 180.6002 179.5210 14.78689372667211"
      },
      "geometry": {
        "type": "Point",
        "coordinates": [
          128.90682378541246,
          86.04420498320003
        ]
      }
    },
    {
      "type": "Feature",
      "properties": {
        "norad_id": 35850,
        "name": "IRIDIUM 33 DEB",
        "group": "iridium-33-debris",
        "lat": 59.83361638678252,
        "lon": -10.77574131731254,
        "alt_km": 629.5574968587252,
        "timestamp": "2025-12-15T15:53:20.234072+00:00",
        "meta_object_name": "IRIDIUM 33 DEB",
        "meta_object_id": "1997-051TA",
        "meta_epoch": "2025-12-06T07:30:15.621984",
        "meta_mean_motion": 14.78601393,
        "meta_eccentricity": 0.00083892,
        "meta_inclination": 86.3487,
        "meta_ra_of_asc_node": 347.1693,
        "meta_arg_of_pericenter": 210.267,
        "meta_mean_anomaly": 149.8067,
        "meta_ephemeris_type": 0,
        "meta_classification_type": "U",
        "meta_norad_cat_id": 35850,
        "meta_element_set_no": 999,
        "meta_rev_at_epoch": 71262,
        "meta_bstar": 0.0028291764,
        "meta_mean_motion_dot": 0.00020775,
        "meta_mean_motion_ddot": 0,
        "tle_line1": "1 35850U 97051TA  25340.31268081  .00020775  00000+0  28292-2 0  9991",
        "tle_line2": "2 35850  86.3487 347.1693 0008389 210.2670 149.8067 14.78601393712623"
      },
      "geometry": {
        "type": "Point",
        "coordinates": [
          -10.77574131731254,
          59.83361638678252
        ]
      }
    }
  ]
}